COSMOS 2433 (720)       
1 32275U 07052A   23292.55060357 -.00000046  00000+0  00000+0 0  9991
2 32275  66.0094 348.4324 0005047 238.0678 121.9541  2.13104041124358
COSMOS 2432 (719)       
1 32276U 07052B   23292.58265347 -.00000046  00000+0  00000+0 0  9991
2 32276  66.0238 348.5408 0009745 312.1291  19.4002  2.13103186124371
COSMOS 2434 (721)       
1 32393U 07065A   23292.86843056  .00000033  00000+0  00000+0 0  9990
2 32393  64.3322 224.7599 0001876  68.5651  66.6096  2.13103022123073
COSMOS 2436 (723)       
1 32395U 07065C   23292.77178977  .00000033  00000+0  00000+0 0  9995
2 32395  64.3408 224.8252 0016310 358.4039 198.0923  2.13102668123026
COSMOS 2456 (730)       
1 36111U 09070A   23292.94770694  .00000075  00000+0  00000+0 0  9992
2 36111  64.5100 104.2398 0001250 335.4916  19.0128  2.13099055107728
COSMOS 2457 (733)       
1 36112U 09070B   23292.58506861  .00000073  00000+0  00000+0 0  9994
2 36112  64.4944 104.1165 0006567 148.0699  59.3769  2.13101244107763
COSMOS 2460 (732)       
1 36402U 10007C   23292.77333346 -.00000045  00000+0  00000+0 0  9995
2 36402  65.8709 347.1326 0002135 235.7326 105.0679  2.13106208106027
COSMOS 2476 (744)       
1 37867U 11064A   23292.83431654  .00000077  00000+0  00000+0 0  9997
2 37867  64.7893 105.7881 0021445 230.0519 307.1660  2.13101655 93061
COSMOS 2477 (745)       
1 37868U 11064B   23292.65711101  .00000076  00000+0  00000+0 0  9995
2 37868  64.7965 105.8639 0018652 230.0812 349.0549  2.13101525 93052
COSMOS 2475 (743)       
1 37869U 11064C   23292.70123336  .00000076  00000+0  00000+0 0  9999
2 37869  64.8036 105.8752 0022563 248.5845 322.9295  2.13101809 93069
COSMOS 2485 (747)       
1 39155U 13019A   23292.07598311  .00000074  00000+0  00000+0 0  9998
2 39155  64.9489 106.3470 0021982 226.0723 133.7771  2.13101800 81565
COSMOS 2492 (754)       
1 39620U 14012A   23292.50079141 -.00000045  00000+0  00000+0 0  9991
2 39620  65.7543 346.7537 0012914 311.1294  48.8307  2.13103078 74539
COSMOS 2500 (755)       
1 40001U 14032A   23292.68347934 -.00000045  00000+0  00000+0 0  9995
2 40001  65.6924 346.5716 0008572 211.0272 148.9929  2.13105908 72750
COSMOS 2501 (702K)      
1 40315U 14075A   23292.46464830  .00000034  00000+0  00000+0 0  9998
2 40315  63.6352 224.0879 0019164 209.2103 150.7006  2.13101203 69142
COSMOS 2514 (751)       
1 41330U 16008A   23292.44611837 -.00000045  00000+0  00000+0 0  9996
2 41330  65.4893 346.1496 0012505 215.6514 144.3361  2.13102532 59913
COSMOS 2522 (752)       
1 42939U 17055A   23292.75693346  .00000033  00000+0  00000+0 0  9990
2 42939  64.0958 225.0299 0008188 242.2065 117.7276  2.13101962 47272
COSMOS 2527 (756)       
1 43508U 18053A   23291.77710354  .00000073  00000+0  00000+0 0  9996
2 43508  65.1100 106.4589 0007684 212.9605 147.0231  2.13102360 41559
COSMOS 2529 (757)       
1 43687U 18086A   23291.87642297  .00000037  00000+0  00000+0 0  9991
2 43687  64.3113 225.5075 0009921 264.3005  95.6007  2.13101997 38567
COSMOS 2534 (758)       
1 44299U 19030A   23293.18510150  .00000031  00000+0  00000+0 0  9993
2 44299  64.3839 225.3939 0012203 285.2218 132.9072  2.13101774 34234
COSMOS 2544 (759)       
1 44850U 19088A   23290.31310486  .00000070  00000+0  00000+0 0  9994
2 44850  65.0955 106.3500 0011219 247.7650 112.1513  2.13102164 29963
COSMOS 2545 (760)       
1 45358U 20018A   23291.91776840 -.00000046  00000+0  00000+0 0  9994
2 45358  64.8298 346.3762 0011462 243.4905 116.4636  2.13102516 27946
COSMOS 2547 (705K)      
1 46805U 20075A   23292.57578614  .00000035  00000+0  00000+0 0  9994
2 46805  64.6117 224.9839 0007428 243.0997 116.8412  2.13102754 23207
COSMOS 2557 (706K)      
1 52984U 22075A   23292.26936949 -.00000048  00000+0  00000+0 0  9991
2 52984  64.7477 348.5185 0013209 275.7539  84.1661  2.13102165 10000
COSMOS 2559 (707K)      
1 54031U 22130A   23292.68076289 -.00000049  00000+0  00000+0 0  9997
2 54031  64.7190 348.6301 0007857 225.5312 134.4740  2.13101421  7986
COSMOS 2564 (761)       
1 54377U 22161A   23291.46584207  .00000038  00000+0  00000+0 0  9990
2 54377  64.7526 225.0821 0009484 222.7123 137.2274  2.13102172  6902
COSMOS 2569 (703K)      
1 57517U 23114A   23292.89297965  .00000077  00000+0  00000+0 0  9991
2 57517  64.8199 105.5007 0008576 295.2579  64.6827  2.13104009  1562
